{
 "type": "FeatureCollection",
 "features": [
  {
   "type": "Feature",
   "properties": {},
   "geometry": {
    "type": "LineString",
    "coordinates": [
     [
      12.34992933600924,
      45.438023015634
     ],
     [
      12.350330472329915,
      45.43788670049577
     ],
     [
      12.35037224355051,
      45.43786204277325
     ],
     [
      12.35061624055669,
      45.43776992519568
     ],
     [
      12.350596349499483,
      45.43774014977001
     ],
     [
      12.350663979093554,
      45.43771595722475
     ],
     [
      12.350757206667737,
      45.43705665519178
     ],
     [
      12.350642257536805,
      45.436812582832744
     ]
    ]
   }
  },
  {
   "type": "Feature",
   "properties": {},
   "geometry": {
    "coordinates": [
     [
      [
       12.350273,
       45.437002
      ],
      [
       12.350703,
       45.436887
      ],
      [
       12.350628,
       45.436737
      ],
      [
       12.350189,
       45.436848
      ],
      [
       12.350273,
       45.437002
      ]
     ]
    ],
    "type": "Polygon"
   },
   "id": "139b1588c64962c65fbfe1dacd9dc343"
  },
  {
   "type": "Feature",
   "properties": {
    "label": "Armenia Pavilion"
   },
   "geometry": {
    "coordinates": [
     12.350369,
     45.436882
    ],
    "type": "Point"
   },
   "id": "f7a6bc0ab5d0d8c85855fa33c2f561de"
  },
  {
   "type": "Feature",
   "properties": {
    "marker": "start",
    "label": "Start"
   },
   "geometry": {
    "type": "Point",
    "coordinates": [
     12.34992933600924,
     45.438023015634
    ]
   }
  },
  {
   "type": "Feature",
   "properties": {
    "marker": "end",
    "label": "End"
   },
   "geometry": {
    "type": "Point",
    "coordinates": [
     12.350642257536805,
     45.436812582832744
    ]
   }
  }
 ]
}