{
  "type": "FeatureCollection",
  "features": [
    {
      "type": "Feature",
      "properties": { "name": "Water taxi route — Hotel Gabrielli to the Armenian Pavilion" },
      "geometry": {
        "type": "LineString",
        "coordinates": [
          [12.347620, 45.433500],
          [12.347480, 45.433200],
          [12.346900, 45.433050],
          [12.346100, 45.433100],
          [12.345550, 45.433350],
          [12.345350, 45.433696],
          [12.345434, 45.434047],
          [12.345502, 45.434284],
          [12.345731, 45.434867],
          [12.345842, 45.435054],
          [12.345939, 45.435240],
          [12.346029, 45.435442],
          [12.346063, 45.435623],
          [12.346034, 45.435760],
          [12.345936, 45.435925],
          [12.345858, 45.436047],
          [12.345785, 45.436191],
          [12.345767, 45.436265],
          [12.345771, 45.436350],
          [12.345798, 45.436442],
          [12.345865, 45.436632],
          [12.345912, 45.436806],
          [12.345916, 45.436902],
          [12.345913, 45.437019],
          [12.345902, 45.437137],
          [12.345873, 45.437252],
          [12.345791, 45.437462],
          [12.345729, 45.437635],
          [12.345718, 45.437746],
          [12.345715, 45.437810],
          [12.345725, 45.437844],
          [12.345754, 45.437903],
          [12.345915, 45.438854],
          [12.346177, 45.439910],
          [12.346330, 45.440090],
          [12.346650, 45.440110],
          [12.347908, 45.439760],
          [12.349962, 45.439460],
          [12.350532, 45.439400],
          [12.351460, 45.439330],
          [12.351900, 45.439150],
          [12.351800, 45.438700],
          [12.351740, 45.438540],
          [12.351600, 45.438100],
          [12.351390, 45.437500],
          [12.351280, 45.437000],
          [12.351100, 45.436850],
          [12.350800, 45.436820]
        ]
      }
    },
    {
      "type": "Feature",
      "properties": { "name": "Tesa 41" },
      "geometry": {
        "type": "Polygon",
        "coordinates": [[
          [12.350273, 45.437002],
          [12.350703, 45.436887],
          [12.350628, 45.436737],
          [12.350189, 45.436848],
          [12.350273, 45.437002]
        ]]
      }
    },
    {
      "type": "Feature",
      "properties": { "marker": "start", "label": "Hotel Gabrielli", "anchor": "left" },
      "geometry": { "type": "Point", "coordinates": [12.347620, 45.433500] }
    },
    {
      "type": "Feature",
      "properties": { "marker": "end", "label": "Armenian Pavilion", "anchor": "top" },
      "geometry": { "type": "Point", "coordinates": [12.350800, 45.436820] }
    },
    {
      "type": "Feature",
      "properties": { "label": "Only entrance\nRio delle Galeazze", "anchor": "right" },
      "geometry": { "type": "Point", "coordinates": [12.351740, 45.438540] }
    }
  ]
}
